MEAN_MOTION;ECCENTRICITY;INCLINATION;RA_OF_ASC_NODE;ARG_OF_PERICENTER;MEAN_ANOMALY;BSTAR;MEAN_MOTION_DOT;MEAN_MOTION_DDOT;TYPE
12.32436671;0.0001151;51.9968;172.733;323.6704;193.3341;-1.7878E-5;-9.7E-7;0;Globalstar
12.32436866;0.000116;51.9968;169.7004;326.1427;186.0156;0.00010469;-8.2E-7;0;Globalstar
12.32436896;0.0001188;51.9967;167.1332;327.988;181.6804;9.7005E-5;-8.3E-7;0;Globalstar
12.32436935;0.0001206;51.9967;164.8424;329.6214;111.5651;0.00011332;-8.1E-7;0;Globalstar
12.32436942;0.0001211;51.9966;164.3759;329.7895;110.3788;0.000138;-7.8E-7;0;Globalstar
12.3243693;0.0001215;51.9966;164.0778;329.9848;209.8779;0.00012437;-8.0E-7;0;Globalstar
12.32436908;0.0001229;51.9966;161.8117;331.9404;101.2259;0.0001207;-8.0E-7;0;Globalstar
12.32436904;0.0001233;51.9966;161.5331;332.2116;170.5351;0.00012089;-8.0E-7;0;Globalstar
12.32436906;0.0001236;51.9966;161.2869;332.3643;189.9436;0.00012804;-8.0E-7;0;Globalstar
12.32436881;0.0001272;51.9965;158.4875;334.2174;183.6156;0.00014108;-7.8E-7;0;Globalstar
12.32436872;0.0001302;51.9965;155.6879;336.1935;177.4692;0.00017917;-7.3E-7;0;Globalstar
12.32436892;0.0001323;51.9965;153.1508;338.1765;126.6444;0.00020092;-7.1E-7;0;Globalstar
12.3243693;0.0001348;51.9965;150.3507;340.279;121.2591;0.0002046;-7.0E-7;0;Globalstar
12.32436974;0.0001371;51.9965;147.5494;342.1444;117.7451;0.00018384;-7.3E-7;0;Globalstar
12.32436989;0.0001378;51.9965;146.8148;342.7592;169.733;0.00017417;-7.4E-7;0;Globalstar
12.32437022;0.00014;51.9964;144.4876;344.2667;155.7631;0.00014542;-7.7E-7;0;Globalstar
12.32437028;0.0001405;51.9964;144.0148;344.64;164.331;0.00013064;-7.9E-7;0;Globalstar
12.32437044;0.0001424;51.9963;141.6867;345.9745;151.951;8.0774E-5;-8.5E-7;0;Globalstar
12.32437063;0.0001442;51.9962;139.8916;347.0369;38.044;4.6355E-5;-8.9E-7;0;Globalstar
12.32437039;0.0001458;51.9962;138.6687;347.7734;122.6072;-1.8817E-6;-9.5E-7;0;Globalstar
12.32437065;0.0001469;51.9961;136.8491;349.0564;46.1376;-1.4178E-5;-9.7E-7;0;Globalstar
12.32436997;0.0001484;51.9961;135.8741;349.5043;108.7564;-7.592E-5;-1.04E-6;0;Globalstar
12.32436962;0.0001515;51.9964;133.0733;351.1227;104.1267;-4.0201E-6;-9.6E-7;0;Globalstar
12.32437;0.0001551;51.9963;129.7694;353.2806;155.0385;1.8479E-5;-9.3E-7;0;Globalstar
12.32437033;0.0001577;51.9957;126.9649;355.0133;156.7193;0.00010821;-8.2E-7;0;Globalstar
12.32437059;0.0001593;51.9957;125.4124;355.8651;29.0286;0.00014414;-7.8E-7;0;Globalstar
12.32437108;0.0001603;51.9957;124.3987;356.6591;150.921;0.00021299;-6.9E-7;0;Globalstar
12.32437207;0.0001628;51.9957;121.6278;358.5277;100.3537;0.00030784;-5.8E-7;0;Globalstar
12.32437207;0.0001628;51.9957;121.6278;358.5277;100.3537;0.00030784;-5.8E-7;0;Globalstar
12.32437275;0.0001655;51.9957;118.827;0.6953;95.5441;0.0003302;-5.5E-7;0;Globalstar
12.32437303;0.0001671;51.9957;116.9989;1.899;32.3452;0.0003058;-5.8E-7;0;Globalstar
12.32437321;0.0001706;51.9957;114.4509;3.5153;358.6603;0.00025558;-6.4E-7;0;Globalstar
12.32437345;0.0001716;51.9957;112.9436;4.6458;160.8592;0.00022398;-6.8E-7;0;Globalstar
12.32437356;0.0001749;51.9958;109.9232;6.6144;134.903;0.00011619;-8.1E-7;0;Globalstar
12.32437356;0.0001749;51.9958;109.9232;6.6144;134.903;0.00011619;-8.1E-7;0;Globalstar
12.32437407;0.0001789;51.9958;105.8016;9.3119;5.6413;4.2783E-5;-9.0E-7;0;Globalstar
12.32437407;0.000179;51.9958;105.3252;9.7173;19.4896;1.4762E-5;-9.3E-7;0;Globalstar
12.3243741;0.0001806;51.9958;104.3019;10.4611;156.1886;2.0734E-5;-9.3E-7;0;Globalstar
12.32437393;0.0001833;51.9959;102.2561;11.7855;68.335;-2.9607E-5;-9.9E-7;0;Globalstar
12.32437411;0.0001864;51.9959;101.2773;12.4463;136.4457;4.8082E-7;-9.5E-7;0;Globalstar
12.32437412;0.000191;51.996;98.4735;14.4292;136.3634;7.1573E-6;-9.4E-7;0;Globalstar
12.3243745;0.0001957;51.9962;94.357;17.223;358.9951;5.5208E-5;-8.8E-7;0;Globalstar
12.32437433;0.0001978;51.9962;93.614;17.9815;63.5863;5.3279E-5;-8.9E-7;0;Globalstar
12.32437436;0.0001988;51.9963;92.857;18.5418;149.8777;6.2635E-5;-8.7E-7;0;Globalstar
12.3243744;0.0002011;51.9964;89.8313;20.5726;131.9682;7.0931E-5;-8.6E-7;0;Globalstar
12.32437495;0.0002014;51.9967;87.0312;22.2445;126.5658;0.00011255;-8.1E-7;0;Globalstar
12.32437504;0.000202;51.9969;84.9796;23.5138;47.9246;9.7822E-5;-8.3E-7;0;Globalstar
12.3243752;0.0002029;51.9969;84.2274;23.9894;126.9072;0.00010343;-8.3E-7;0;Globalstar
12.32437566;0.0002057;51.9972;81.4313;25.8712;115.391;9.6965E-5;-8.3E-7;0;Globalstar
12.32437592;0.000206;51.9973;80.099;26.6186;8.501;8.4013E-5;-8.5E-7;0;Globalstar
12.32437591;0.0002091;51.9975;77.062;29.0005;7.793;2.0893E-5;-9.3E-7;0;Globalstar
12.32437582;0.0002101;51.9976;75.8103;29.828;136.6481;-5.3023E-6;-9.6E-7;0;Globalstar
12.32437568;0.0002124;51.9977;73.5011;31.4812;94.7173;-3.6359E-5;-9.9E-7;0;Globalstar
12.3243752;0.0002127;51.9978;72.7858;31.8462;117.1171;-0.00010638;-1.08E-6;0;Globalstar
12.32437439;0.0002159;51.998;69.9825;33.8949;116.4781;-0.00018421;-1.17E-6;0;Globalstar
12.32437436;0.0002164;51.9983;68.6627;34.7237;350.7916;-0.00010917;-1.08E-6;0;Globalstar
12.32437422;0.0002185;51.9984;67.1863;35.9414;105.6777;-0.00011472;-1.09E-6;0;Globalstar
12.3243743;0.0002209;51.9986;64.8773;37.5557;63.7323;-0.00010312;-1.08E-6;0;Globalstar
12.32437474;0.0002216;51.9987;64.3863;37.9829;100.2246;-5.3457E-5;-1.02E-6;0;Globalstar
12.32437557;0.0002244;51.9986;61.3399;40.202;113.5202;8.1611E-5;-8.5E-7;0;Globalstar
12.32437635;0.0002268;51.9988;58.5407;41.9856;107.0765;0.00018092;-7.3E-7;0;Globalstar
12.32437654;0.0002274;51.9989;57.4557;42.6562;339.006;0.00020267;-7.0E-7;0;Globalstar
12.32437663;0.0002277;51.999;56.9842;42.9761;345.5106;0.00018711;-7.2E-7;0;Globalstar
12.32437682;0.0002293;51.9991;55.7372;43.7978;107.1975;0.00020799;-7.0E-7;0;Globalstar
12.32437713;0.0002315;51.9992;53.4317;45.5396;59.7523;0.0002104;-7.0E-7;0;Globalstar
12.32437702;0.0002336;51.9994;51.1163;47.0704;27.8623;0.00012707;-8.0E-7;0;Globalstar
12.32437657;0.0002335;51.9994;50.3536;47.4604;123.3788;8.1535E-5;-8.5E-7;0;Globalstar
12.32437624;0.0002352;51.9996;48.3437;48.8703;340.5823;-5.3421E-6;-9.6E-7;0;Globalstar
12.32437621;0.0002362;51.9996;47.3203;49.519;117.7784;-5.5767E-6;-9.6E-7;0;Globalstar
12.32437605;0.0002373;51.9997;45.5405;50.7254;340.4577;-5.2881E-5;-1.01E-6;0;Globalstar
12.32437617;0.0002386;51.9998;44.2965;51.4668;97.7272;-3.4569E-5;-9.9E-7;0;Globalstar
12.32437605;0.0002398;51.9998;42.474;52.7687;26.0602;-6.1374E-5;-1.03E-6;0;Globalstar
12.3243763;0.000242;51.9999;39.6728;54.6285;22.8007;-4.0515E-5;-1.0E-6;0;Globalstar
12.32437634;0.0002428;51.9999;38.9153;55.0614;110.277;-2.4085E-5;-9.8E-7;0;Globalstar
12.32437635;0.0002441;51.9999;36.8724;56.4881;18.3736;-4.0617E-5;-1.0E-6;0;Globalstar
12.32437625;0.000245;51.9999;35.878;57.188;110.847;-2.9983E-5;-9.9E-7;0;Globalstar
12.32437612;0.0002461;52;33.8327;58.6144;22.5401;-4.041E-5;-1.0E-6;0;Globalstar
12.32437645;0.0002473;52;32.8519;59.3347;93.9309;6.5496E-6;-9.4E-7;0;Globalstar
12.32437641;0.0002482;52;31.0314;60.608;19.257;1.9204E-5;-9.3E-7;0;Globalstar
12.3243768;0.0002492;52;30.0526;61.2169;87.6432;7.6968E-5;-8.6E-7;0;Globalstar
12.32437701;0.0002501;52;28.23;62.5179;16.2556;0.00010409;-8.2E-7;0;Globalstar
12.32437727;0.000252;52;25.4288;64.4195;12.8895;0.00013334;-7.9E-7;0;Globalstar
12.32437708;0.0002524;52.0001;24.6827;64.8863;82.6728;0.0001278;-8.0E-7;0;Globalstar
12.32437668;0.000254;52.0001;22.3898;66.46;15.9224;6.0159E-5;-8.8E-7;0;Globalstar
12.32437635;0.0002527;52.0001;21.6529;66.7944;71.5469;-4.1954E-5;-1.0E-6;0;Globalstar
12.32437589;0.0002537;52.0001;19.5887;68.2448;12.38;-8.1531E-5;-1.05E-6;0;Globalstar
12.3243756;0.0002546;52.0001;17.0526;70.0168;320.2872;-9.3663E-5;-1.06E-6;0;Globalstar
12.32437609;0.0002554;52.0001;15.8083;70.7486;77.9611;-3.0815E-5;-9.9E-7;0;Globalstar
12.3243767;0.0002567;52;13.2613;72.5204;42.6551;5.4857E-5;-8.8E-7;0;Globalstar
12.32437731;0.0002588;51.9999;10.9576;73.9985;353.1967;0.00010677;-8.2E-7;0;Globalstar
12.32437759;0.0002597;51.9999;10.2089;74.6069;66.9208;0.00012699;-8.0E-7;0;Globalstar
12.32437829;0.0002606;51.9998;7.8996;76.0448;25.6811;0.00017036;-7.4E-7;0;Globalstar
12.32437858;0.0002611;51.9998;7.4088;76.3329;62.0735;0.00019367;-7.2E-7;0;Globalstar
12.32437906;0.0002618;51.9997;5.3448;77.7371;2.5847;0.00021052;-7.0E-7;0;Globalstar
12.32437913;0.0002617;51.9997;5.0981;77.8571;22.7981;0.00022582;-6.8E-7;0;Globalstar
12.32437921;0.0002626;51.9996;2.3172;79.719;347.9476;0.00020964;-7.0E-7;0;Globalstar
12.32437911;0.0002627;51.9995;1.5637;79.9883;69.363;0.00019587;-7.1E-7;0;Globalstar
12.32437902;0.0002633;51.9995;359.5121;81.4883;350.51;0.00017735;-7.4E-7;0;Globalstar
12.32437872;0.0002645;51.9994;356.7125;83.301;344.5364;0.00012816;-8.0E-7;0;Globalstar
12.32437796;0.0002634;51.9996;353.6542;85.2644;16.9943;-2.7769E-5;-9.8E-7;0;Globalstar
12.32437755;0.0002637;51.9995;353.1637;85.552;52.916;-6.1897E-5;-1.03E-6;0;Globalstar
12.32437681;0.0002644;51.9995;350.8534;87.2464;12.8987;-0.000129;-1.11E-6;0;Globalstar
12.32437638;0.0002642;51.9994;349.906;87.7668;32.8441;-0.00016598;-1.15E-6;0;Globalstar
12.32437602;0.0002642;51.9994;348.0718;89.0636;339.2277;-0.00018162;-1.17E-6;0;Globalstar
12.32437631;0.0002644;51.9992;345.2669;90.9894;341.1475;-0.00010853;-1.08E-6;0;Globalstar
12.32437666;0.0002647;51.9992;345.0227;91.2504;357.3501;-7.0507E-5;-1.04E-6;0;Globalstar
12.32437736;0.0002654;51.9992;344.5153;91.888;58.8395;-5.5216E-6;-9.6E-7;0;Globalstar
12.32437803;0.0002678;51.9989;342.1906;93.1593;41.49;4.4198E-5;-9.0E-7;0;Globalstar
12.32437865;0.0002684;51.9988;341.6965;93.7176;82.6071;9.3322E-5;-8.4E-7;0;Globalstar
12.32437999;0.0002681;51.9988;339.4098;95.1689;6.4646;0.00020432;-7.0E-7;0;Globalstar
12.3243802;0.0002684;51.9988;338.9423;95.5432;6.6286;0.00021096;-6.9E-7;0;Globalstar
12.3243806;0.000268;51.9987;336.8689;96.8903;321.637;0.00020074;-7.1E-7;0;Globalstar
12.32438076;0.0002682;51.9987;336.344;97.1965;50.5816;0.00021725;-6.9E-7;0;Globalstar
12.32438125;0.0002677;51.9986;333.8269;98.81;329.0605;0.00022816;-6.7E-7;0;Globalstar
